OBJECT_NAME,OBJECT_ID,EPOCH,MEAN_MOTION,ECCENTRICITY,INCLINATION,RA_OF_ASC_NODE,ARG_OF_PERICENTER,MEAN_ANOMALY,EPHEMERIS_TYPE,CLASSIFICATION_TYPE,NORAD_CAT_ID,ELEMENT_SET_NO,REV_AT_EPOCH,BSTAR,MEAN_MOTION_DOT,MEAN_MOTION_DDOT
STARLINK-33706,2025-070B,2026-06-06T03:56:39.939360,15.27602827,.00014782,43.0018,120.4765,263.7702,96.2981,0,U,63461,999,6650,.91917967E-3,.25136E-3,0
STARLINK-33691,2025-070C,2026-06-06T04:16:48.526752,15.27598829,.00006162,43.0016,119.7187,252.7604,107.3180,0,U,63462,999,6646,.89803091E-3,.24546E-3,0
STARLINK-33696,2025-070D,2026-06-06T04:53:49.517376,15.27596041,.00011917,42.9972,119.9178,239.6371,120.4363,0,U,63463,999,6651,.13303449E-2,.36546E-3,0
STARLINK-33701,2025-070E,2026-06-05T00:00:02.000160,15.27579775,.0001333,43.0009,127.1020,266.9130,141.4384,0,U,63464,999,588,-.95715141E-4,-.2895E-4,0
STARLINK-33685,2025-070F,2026-06-06T14:35:23.984736,15.27598854,.0002841,43.0023,117.7841,261.0589,98.9941,0,U,63465,999,6657,.88118E-3,.24081E-3,0
STARLINK-33654,2025-070G,2026-06-06T14:20:35.588832,15.27615474,.0003429,43.0018,117.7150,267.8402,92.2057,0,U,63466,999,6657,.87598E-3,.2395E-3,0
STARLINK-33697,2025-070H,2026-06-06T04:59:23.206272,15.27613031,.00009321,43.0004,119.9582,274.0623,86.0122,0,U,63467,999,6651,.80962101E-3,.22106E-3,0
STARLINK-33720,2025-070J,2026-06-05T14:53:48.169824,15.27647134,.00022502,43.0040,123.2792,275.6030,84.4565,0,U,63468,999,6642,.64355542E-3,.17526E-3,0
STARLINK-33587,2025-070K,2026-06-06T14:03:56.259648,15.27600390,.0002006,42.9975,117.6138,276.5846,83.4777,0,U,63469,999,6657,.71626E-3,.19513E-3,0
STARLINK-33637,2025-070L,2026-06-06T04:07:46.612992,15.27590230,.00003882,42.9973,120.5279,171.8755,188.2103,0,U,63470,999,6650,.98114059E-3,.26844E-3,0
STARLINK-33744,2025-070M,2026-06-06T14:44:39.323328,15.27602097,.0001515,43.0023,117.8268,259.0913,100.9768,0,U,63471,999,6657,.86783E-3,.23712E-3,0
STARLINK-33766,2025-070N,2026-06-06T03:58:31.105056,15.27609016,.00029007,43.0022,120.4841,272.2520,87.8000,0,U,63472,999,6650,.8927143E-3,.24408E-3,0
STARLINK-33765,2025-070P,2026-06-06T14:31:42.263328,15.27590752,.0001951,43.0036,117.7642,265.7689,94.2940,0,U,63473,999,6657,.75563E-3,.20596E-3,0
STARLINK-33735,2025-070Q,2026-06-06T14:05:47.103072,15.27572423,.000138,43.0017,117.6217,279.1358,80.9338,0,U,63474,999,6657,.1213E-2,.3326E-3,0
STARLINK-33731,2025-070R,2026-06-06T04:04:05.248416,15.27608763,.00025003,43.0021,120.5073,262.3421,97.7147,0,U,63475,999,6650,.8923237E-3,.24396E-3,0
STARLINK-33718,2025-070S,2026-06-06T04:22:21.404352,15.27603318,.00002559,42.9970,119.7383,213.1222,146.9613,0,U,63476,999,6651,.83343227E-3,.22759E-3,0
STARLINK-33630,2025-070T,2026-06-06T14:08:20.087232,15.27600104,.0002619,43.0024,114.1609,265.3883,94.6669,0,U,63477,999,6661,.84806E-3,.23163E-3,0
STARLINK-33695,2025-070U,2026-06-06T13:49:49.742688,15.27582117,.000205,42.9941,114.0546,274.7953,85.2664,0,U,63478,999,6661,.73505E-3,.20022E-3,0
STARLINK-33713,2025-070V,2026-06-06T04:30:27.322272,15.27608705,.00010089,43.0030,116.3029,271.0551,89.0186,0,U,63479,999,6655,.98379846E-3,.26932E-3,0
STARLINK-33721,2025-070W,2026-06-06T13:59:04.894656,15.27596610,.0001618,43.0002,114.1099,261.1841,98.8828,0,U,63480,999,6661,.91852E-3,.25113E-3,0
STARLINK-33639,2025-070X,2026-06-05T14:54:32.094720,15.27582364,.00013927,43.0028,119.7893,274.2888,85.7805,0,U,63481,999,6646,.76510471E-3,.20853E-3,0
STARLINK-33688,2025-070Z,2026-06-05T15:04:54.493536,15.27586445,.00015757,43.0041,123.3140,279.3237,80.7437,0,U,63483,999,6642,.53326401E-3,.14444E-3,0
STARLINK-33700,2025-070AA,2026-06-06T14:09:28.356192,15.27603213,.0001884,42.9995,117.6281,270.0864,89.9771,0,U,63484,999,6657,.7306E-3,.19911E-3,0
STARLINK-33687,2025-070AB,2026-06-06T04:27:53.810208,15.27594959,.00007901,43.0007,119.7113,262.9846,97.0915,0,U,63485,999,6651,.88085807E-3,.24067E-3,0
STARLINK-33716,2025-070AC,2026-06-06T14:00:14.806080,15.27594858,.0001418,42.9998,117.5909,270.4496,89.6193,0,U,63486,999,6657,.12139E-2,.33308E-3,0
STARLINK-33754,2025-070AD,2026-06-06T14:29:50.834112,15.27595760,.0002249,43.0027,117.7385,269.4066,90.6528,0,U,63487,999,6657,.79326E-3,.21642E-3,0
POSAT-2,2025-009DR,2026-06-06T22:29:42.357984,15.12698020,.0006729,97.4847,233.1804,169.4998,190.6375,0,U,63488,999,6509,.88912628E-3,.15529E-3,0
HERMES-6,2025-052BK,2026-06-06T15:07:45.048864,15.23005973,.00057046,97.4010,50.2692,190.2086,169.9036,0,U,63489,999,6822,.3608743E-3,.8423E-4,0
STARLINK-33828,2025-071A,2026-06-06T22:00:03.000096,15.35379791,.00013123,53.1605,83.9353,91.4376,237.2929,0,U,63493,999,590,.96116369E-4,.2971E-4,0
STARLINK-33819,2025-071B,2026-06-06T01:56:20.409792,15.41915396,.00022064,53.1614,87.9002,42.1037,318.0138,0,U,63494,999,6630,-.33701449E-2,-.143203E-2,0
STARLINK-33845,2025-071C,2026-06-06T12:40:11.608896,15.30223179,.0001474,53.1611,87.1247,85.4561,274.6608,0,U,63495,999,6635,.73252E-3,.21414E-3,0
STARLINK-33829,2025-071D,2026-06-06T02:04:39.739584,15.30237099,.00011331,53.1594,89.3474,68.2199,291.8922,0,U,63496,999,6624,.14451396E-2,.42737E-3,0
STARLINK-33815,2025-071E,2026-06-06T09:54:06.693408,15.31733020,.00011646,53.1603,87.8280,81.4228,278.6906,0,U,63497,999,6635,.11507786E-2,.35552E-3,0
STARLINK-33833,2025-071F,2026-06-05T02:47:31.005312,15.30206748,.00010394,53.1576,93.9506,80.2307,279.8811,0,U,63498,999,6615,.98554742E-3,.2895E-3,0
STARLINK-33534,2025-071G,2026-06-06T12:14:59.114688,15.31730886,.0001384,53.1596,87.0156,73.3085,286.8068,0,U,63499,999,6635,.12148E-2,.37557E-3,0
STARLINK-33838,2025-071H,2026-06-06T12:46:18.791616,15.30232360,.0001476,53.1599,87.1433,104.0158,256.1007,0,U,63500,999,6616,.12572E-2,.37099E-3,0
STARLINK-33837,2025-071J,2026-06-06T02:24:28.484352,15.31728482,.00011355,53.1595,89.4329,101.4382,258.6747,0,U,63501,999,6624,.14265895E-2,.44206E-3,0
STARLINK-33818,2025-071K,2026-06-06T12:41:44.043072,15.30231603,.000059,53.1603,87.1267,104.4704,255.6362,0,U,63502,999,6637,.13055E-2,.38544E-3,0
STARLINK-33583,2025-071L,2026-06-06T12:01:02.748000,15.49336334,.00011825,53.1587,86.2336,74.3451,285.7688,0,U,63503,999,6639,.11535383E-2,.64299E-3,0
STARLINK-33811,2025-071M,2026-06-06T12:11:30.436224,15.30219027,.000055,53.1575,87.7070,152.7120,207.3910,0,U,63504,999,6630,.11516E-2,.33925E-3,0
STARLINK-33825,2025-071N,2026-06-06T12:28:02.985600,15.30239069,.0001265,53.1595,87.0660,90.8808,269.2337,0,U,63505,999,6637,.10314E-2,.30348E-3,0
STARLINK-33792,2025-071P,2026-06-06T12:34:07.032864,15.30222390,.0002124,53.1595,87.0936,68.1897,291.9329,0,U,63506,999,6632,.69565E-3,.20315E-3,0
STARLINK-33843,2025-071Q,2026-06-06T13:01:27.102720,15.30249925,.0001309,53.1603,87.1804,314.0188,46.0705,0,U,63507,999,6635,.11162E-2,.32898E-3,0
STARLINK-33809,2025-071R,2026-06-06T12:44:45.782016,15.30246155,.0000477,53.1602,87.1064,316.6671,43.4293,0,U,63508,999,6631,.13201E-2,.38998E-3,0
STARLINK-33678,2025-071S,2026-06-06T12:08:15.197280,15.31732782,.0001038,53.1582,86.9496,231.5622,128.5287,0,U,63509,999,6610,.13071E-2,.40458E-3,0
STARLINK-33764,2025-071T,2026-06-06T12:16:03.728064,15.30213089,.0001563,53.1579,87.6890,86.3827,273.7352,0,U,63510,999,6634,.74458E-3,.21767E-3,0
STARLINK-33804,2025-071U,2026-06-06T12:55:17.402304,15.31716001,.0001513,53.1601,87.1502,85.6499,274.4675,0,U,63511,999,6600,.11647E-2,.35969E-3,0
STARLINK-33751,2025-071V,2026-06-06T12:41:50.917056,15.31727290,.0000683,53.1609,87.0941,266.6975,93.3949,0,U,63512,999,6635,.10011E-2,.30854E-3,0
STARLINK-33750,2025-071W,2026-06-06T03:04:39.765792,15.31716163,.00014047,53.1606,88.8603,77.2793,282.8366,0,U,63513,999,6629,.10386434E-2,.3202E-3,0
STARLINK-33786,2025-071X,2026-06-06T12:05:25.192320,15.30213200,.0001186,53.1579,87.6403,85.0123,275.1013,0,U,63514,999,6598,.11785E-2,.34722E-3,0
STARLINK-33796,2025-071Y,2026-06-06T12:37:10.421184,15.30207213,.0001471,53.1593,87.0692,81.6632,278.4536,0,U,63515,999,6637,.7769E-3,.22726E-3,0
STARLINK-33785,2025-071Z,2026-06-06T12:48:34.781760,15.31730811,.0000455,53.1592,87.1203,41.8745,318.2291,0,U,63516,999,6635,.97136E-3,.29927E-3,0
STARLINK-33803,2025-071AA,2026-06-06T12:47:47.804352,15.30208529,.0002248,53.1591,87.1123,282.4724,77.6025,0,U,63517,999,6637,.11851E-2,.34915E-3,0
STARLINK-33807,2025-071AB,2026-06-06T02:23:06.162432,15.35439722,.00012062,53.1591,87.9647,92.3432,267.7709,0,U,63518,999,6632,.15409188E-2,.53823E-3,0
STARLINK-33787,2025-071AC,2026-06-06T02:20:35.047104,15.30229151,.0001168,53.1588,91.5063,91.9394,268.1741,0,U,63519,999,6590,.10820201E-2,.31853E-3,0
TJS-17,2025-073A,2026-06-06T18:45:45.777312,1.00272365,.000243,1.0363,82.7836,301.0573,317.3124,0,U,63524,999,418,0,-.56E-6,0
STARLINK-11669 [DTC],2025-075A,2026-06-06T18:30:05.999328,15.70943480,.00030638,42.9985,336.4176,259.9103,100.1419,0,U,63548,999,6726,.18909547E-2,.250756E-2,0
STARLINK-11665 [DTC],2025-075B,2026-06-06T05:24:17.882208,15.71210446,.00027526,42.9985,340.0832,314.6466,45.4177,0,U,63549,999,6717,.22479628E-2,.303476E-2,0
STARLINK-11667 [DTC],2025-075C,2026-06-06T08:00:13.000320,15.70924959,.0001594,43.0005,339.7258,258.5557,234.3737,0,U,63550,999,600,-.18117075E-2,-.227492E-2,0
STARLINK-11695 [DTC],2025-075D,2026-06-06T18:31:24.422880,15.70841518,.00018273,43.0000,336.4227,257.5619,102.5045,0,U,63551,999,6726,.64432326E-3,.83064E-3,0
STARLINK-11685 [DTC],2025-075E,2026-06-06T18:45:22.834656,15.70867952,.00013422,42.9988,336.5020,236.8752,123.1987,0,U,63552,999,6726,.49770706E-3,.63982E-3,0
STARLINK-11697 [DTC],2025-075F,2026-06-06T18:53:02.249376,15.70958042,.00033004,42.9979,336.5433,256.0641,103.9860,0,U,63553,999,6726,.21939141E-2,.292671E-2,0
STARLINK-11680 [DTC],2025-075G,2026-06-06T14:56:34.361088,15.70897609,.0002022,43.0001,337.9065,267.5801,92.4836,0,U,63554,999,6723,-.13971E-2,-.176417E-2,0
STARLINK-11626 [DTC],2025-075J,2026-06-05T17:57:41.556960,15.70864673,.00018775,43.0003,343.3968,262.1693,97.8962,0,U,63556,999,6709,.63613228E-3,.82073E-3,0
